IRIDIUM 106             
1 41917U 17003A   24200.92192433  .00000135  00000+0  41164-4 0  9992
2 41917  86.3969  20.3186 0002484  82.8388 277.3090 14.34218130393123
IRIDIUM 103             
1 41918U 17003B   24200.90923728  .00000004  00000+0 -54982-5 0  9999
2 41918  86.3967  20.2257 0002231  98.7460 261.3988 14.34217339393148
IRIDIUM 109             
1 41919U 17003C   24200.91558069  .00000186  00000+0  59390-4 0  9990
2 41919  86.3971  20.2708 0001912  99.1741 260.9671 14.34217963393111
IRIDIUM 102             
1 41920U 17003D   24200.88386771  .00000051  00000+0  11196-4 0  9990
2 41920  86.3969  20.2226 0001936  89.1163 271.0255 14.34217636393194
IRIDIUM 105             
1 41921U 17003E   24200.92439317  .00000812  00000+0  28297-3 0  9995
2 41921  86.3995 348.6491 0002224  94.2942 265.8508 14.34222877395050
IRIDIUM 104             
1 41922U 17003F   24200.89655291  .00000070  00000+0  17941-4 0  9994
2 41922  86.3970  20.2492 0002022 100.5506 259.5918 14.34217411393186
IRIDIUM 114             
1 41923U 17003G   24200.90289634  .00000053  00000+0  11720-4 0  9991
2 41923  86.3970  20.2324 0002350  85.1886 274.9578 14.34217709393165
IRIDIUM 108             
1 41924U 17003H   24200.93118568  .00000004  00000+0 -57068-5 0  9995
2 41924  86.3988 348.5692 0002167  87.1985 272.9459 14.34217662395028
